CCSDS_OMM_VERS = 2.0
CREATION_DATE  = 
ORIGINATOR     = 

OBJECT_NAME    = ISS (ZARYA)
OBJECT_ID      = 1998-067A
CENTER_NAME    = EARTH
REF_FRAME      = TEME
TIME_SYSTEM    = UTC
MEAN_ELEMENT_THEORY = SGP/SGP4

EPOCH          = 2025-12-27T04:18:31.505184
MEAN_MOTION    = 15.49864323
ECCENTRICITY   = .00032283
INCLINATION    = 51.6319
RA_OF_ASC_NODE = 70.9638
ARG_OF_PERICENTER = 308.9173
MEAN_ANOMALY   = 51.1527

EPHEMERIS_TYPE = 0
CLASSIFICATION_TYPE = U
NORAD_CAT_ID   = 25544
ELEMENT_SET_NO = 999
REV_AT_EPOCH   = 54509
BSTAR          = .2516974E-3
MEAN_MOTION_DOT = .13867E-3
MEAN_MOTION_DDOT = 0

CCSDS_OMM_VERS = 2.0
CREATION_DATE  = 
ORIGINATOR     = 

OBJECT_NAME    = CSS (TIANHE)
OBJECT_ID      = 2021-035A
CENTER_NAME    = EARTH
REF_FRAME      = TEME
TIME_SYSTEM    = UTC
MEAN_ELEMENT_THEORY = SGP/SGP4

EPOCH          = 2025-12-27T06:02:45.823200
MEAN_MOTION    = 15.59750285
ECCENTRICITY   = .0008745
INCLINATION    = 41.4675
RA_OF_ASC_NODE = 288.5662
ARG_OF_PERICENTER = 157.7703
MEAN_ANOMALY   = 202.3516

EPHEMERIS_TYPE = 0
CLASSIFICATION_TYPE = U
NORAD_CAT_ID   = 48274
ELEMENT_SET_NO = 999
REV_AT_EPOCH   = 26629
BSTAR          = .24488937E-3
MEAN_MOTION_DOT = .1992E-3
MEAN_MOTION_DDOT = 0

CCSDS_OMM_VERS = 2.0
CREATION_DATE  = 
ORIGINATOR     = 

OBJECT_NAME    = ISS (NAUKA)
OBJECT_ID      = 2021-066A
CENTER_NAME    = EARTH
REF_FRAME      = TEME
TIME_SYSTEM    = UTC
MEAN_ELEMENT_THEORY = SGP/SGP4

EPOCH          = 2025-12-27T04:18:31.505184
MEAN_MOTION    = 15.49864323
ECCENTRICITY   = .00032283
INCLINATION    = 51.6319
RA_OF_ASC_NODE = 70.9638
ARG_OF_PERICENTER = 308.9173
MEAN_ANOMALY   = 51.1527

EPHEMERIS_TYPE = 0
CLASSIFICATION_TYPE = U
NORAD_CAT_ID   = 49044
ELEMENT_SET_NO = 999
REV_AT_EPOCH   = 23044
BSTAR          = .2516974E-3
MEAN_MOTION_DOT = .13867E-3
MEAN_MOTION_DDOT = 0

CCSDS_OMM_VERS = 2.0
CREATION_DATE  = 
ORIGINATOR     = 

OBJECT_NAME    = FREGAT DEB
OBJECT_ID      = 2011-037PF
CENTER_NAME    = EARTH
REF_FRAME      = TEME
TIME_SYSTEM    = UTC
MEAN_ELEMENT_THEORY = SGP/SGP4

EPOCH          = 2025-12-26T11:54:40.396896
MEAN_MOTION    = 12.34586922
ECCENTRICITY   = .0864537
INCLINATION    = 51.6519
RA_OF_ASC_NODE = 158.7680
ARG_OF_PERICENTER = 253.7501
MEAN_ANOMALY   = 96.6634

EPHEMERIS_TYPE = 0
CLASSIFICATION_TYPE = U
NORAD_CAT_ID   = 49271
ELEMENT_SET_NO = 999
REV_AT_EPOCH   = 20363
BSTAR          = .14302E-1
MEAN_MOTION_DOT = .6366E-4
MEAN_MOTION_DDOT = 0

CCSDS_OMM_VERS = 2.0
CREATION_DATE  = 
ORIGINATOR     = 

OBJECT_NAME    = CSS (WENTIAN)
OBJECT_ID      = 2022-085A
CENTER_NAME    = EARTH
REF_FRAME      = TEME
TIME_SYSTEM    = UTC
MEAN_ELEMENT_THEORY = SGP/SGP4

EPOCH          = 2025-12-27T06:02:45.823200
MEAN_MOTION    = 15.59750285
ECCENTRICITY   = .0008745
INCLINATION    = 41.4675
RA_OF_ASC_NODE = 288.5662
ARG_OF_PERICENTER = 157.7703
MEAN_ANOMALY   = 202.3516

EPHEMERIS_TYPE = 0
CLASSIFICATION_TYPE = U
NORAD_CAT_ID   = 53239
ELEMENT_SET_NO = 999
REV_AT_EPOCH   = 17384
BSTAR          = .24488937E-3
MEAN_MOTION_DOT = .1992E-3
MEAN_MOTION_DDOT = 0

CCSDS_OMM_VERS = 2.0
CREATION_DATE  = 
ORIGINATOR     = 

OBJECT_NAME    = CSS (MENGTIAN)
OBJECT_ID      = 2022-143A
CENTER_NAME    = EARTH
REF_FRAME      = TEME
TIME_SYSTEM    = UTC
MEAN_ELEMENT_THEORY = SGP/SGP4

EPOCH          = 2025-12-27T06:02:45.823200
MEAN_MOTION    = 15.59750285
ECCENTRICITY   = .0008745
INCLINATION    = 41.4675
RA_OF_ASC_NODE = 288.5662
ARG_OF_PERICENTER = 157.7703
MEAN_ANOMALY   = 202.3516

EPHEMERIS_TYPE = 0
CLASSIFICATION_TYPE = U
NORAD_CAT_ID   = 54216
ELEMENT_SET_NO = 999
REV_AT_EPOCH   = 15864
BSTAR          = .24488937E-3
MEAN_MOTION_DOT = .1992E-3
MEAN_MOTION_DDOT = 0

CCSDS_OMM_VERS = 2.0
CREATION_DATE  = 
ORIGINATOR     = 

OBJECT_NAME    = SHENZHOU-20 (SZ-20)
OBJECT_ID      = 2025-082A
CENTER_NAME    = EARTH
REF_FRAME      = TEME
TIME_SYSTEM    = UTC
MEAN_ELEMENT_THEORY = SGP/SGP4

EPOCH          = 2025-12-27T06:02:45.823200
MEAN_MOTION    = 15.59750285
ECCENTRICITY   = .0008745
INCLINATION    = 41.4675
RA_OF_ASC_NODE = 288.5662
ARG_OF_PERICENTER = 157.7703
MEAN_ANOMALY   = 202.3516

EPHEMERIS_TYPE = 0
CLASSIFICATION_TYPE = U
NORAD_CAT_ID   = 63632
ELEMENT_SET_NO = 999
REV_AT_EPOCH   = 25530
BSTAR          = .24488937E-3
MEAN_MOTION_DOT = .1992E-3
MEAN_MOTION_DDOT = 0

CCSDS_OMM_VERS = 2.0
CREATION_DATE  = 
ORIGINATOR     = 

OBJECT_NAME    = PROGRESS-MS 31
OBJECT_ID      = 2025-146A
CENTER_NAME    = EARTH
REF_FRAME      = TEME
TIME_SYSTEM    = UTC
MEAN_ELEMENT_THEORY = SGP/SGP4

EPOCH          = 2025-12-27T04:18:31.505184
MEAN_MOTION    = 15.49864323
ECCENTRICITY   = .00032283
INCLINATION    = 51.6319
RA_OF_ASC_NODE = 70.9638
ARG_OF_PERICENTER = 308.9173
MEAN_ANOMALY   = 51.1527

EPHEMERIS_TYPE = 0
CLASSIFICATION_TYPE = U
NORAD_CAT_ID   = 64751
ELEMENT_SET_NO = 999
REV_AT_EPOCH   = 675
BSTAR          = .2516974E-3
MEAN_MOTION_DOT = .13867E-3
MEAN_MOTION_DDOT = 0

CCSDS_OMM_VERS = 2.0
CREATION_DATE  = 
ORIGINATOR     = 

OBJECT_NAME    = TIANZHOU-9
OBJECT_ID      = 2025-149A
CENTER_NAME    = EARTH
REF_FRAME      = TEME
TIME_SYSTEM    = UTC
MEAN_ELEMENT_THEORY = SGP/SGP4

EPOCH          = 2025-12-27T06:02:45.823200
MEAN_MOTION    = 15.59750285
ECCENTRICITY   = .0008745
INCLINATION    = 41.4675
RA_OF_ASC_NODE = 288.5662
ARG_OF_PERICENTER = 157.7703
MEAN_ANOMALY   = 202.3516

EPHEMERIS_TYPE = 0
CLASSIFICATION_TYPE = U
NORAD_CAT_ID   = 64786
ELEMENT_SET_NO = 999
REV_AT_EPOCH   = 25530
BSTAR          = .24488937E-3
MEAN_MOTION_DOT = .1992E-3
MEAN_MOTION_DDOT = 0

CCSDS_OMM_VERS = 2.0
CREATION_DATE  = 
ORIGINATOR     = 

OBJECT_NAME    = CREW DRAGON 11
OBJECT_ID      = 2025-166A
CENTER_NAME    = EARTH
REF_FRAME      = TEME
TIME_SYSTEM    = UTC
MEAN_ELEMENT_THEORY = SGP/SGP4

EPOCH          = 2025-12-27T04:18:31.505184
MEAN_MOTION    = 15.49864323
ECCENTRICITY   = .00032283
INCLINATION    = 51.6319
RA_OF_ASC_NODE = 70.9638
ARG_OF_PERICENTER = 308.9173
MEAN_ANOMALY   = 51.1527

EPHEMERIS_TYPE = 0
CLASSIFICATION_TYPE = U
NORAD_CAT_ID   = 65077
ELEMENT_SET_NO = 999
REV_AT_EPOCH   = 214
BSTAR          = .2516974E-3
MEAN_MOTION_DOT = .13867E-3
MEAN_MOTION_DDOT = 0

CCSDS_OMM_VERS = 2.0
CREATION_DATE  = 
ORIGINATOR     = 

OBJECT_NAME    = DRAGON CRS-33
OBJECT_ID      = 2025-186A
CENTER_NAME    = EARTH
REF_FRAME      = TEME
TIME_SYSTEM    = UTC
MEAN_ELEMENT_THEORY = SGP/SGP4

EPOCH          = 2025-12-27T04:18:31.505184
MEAN_MOTION    = 15.49864323
ECCENTRICITY   = .00032283
INCLINATION    = 51.6319
RA_OF_ASC_NODE = 70.9638
ARG_OF_PERICENTER = 308.9173
MEAN_ANOMALY   = 51.1527

EPHEMERIS_TYPE = 0
CLASSIFICATION_TYPE = U
NORAD_CAT_ID   = 65304
ELEMENT_SET_NO = 999
REV_AT_EPOCH   = 11
BSTAR          = .2516974E-3
MEAN_MOTION_DOT = .13867E-3
MEAN_MOTION_DDOT = 0

CCSDS_OMM_VERS = 2.0
CREATION_DATE  = 
ORIGINATOR     = 

OBJECT_NAME    = PROGRESS-MS 32
OBJECT_ID      = 2025-204A
CENTER_NAME    = EARTH
REF_FRAME      = TEME
TIME_SYSTEM    = UTC
MEAN_ELEMENT_THEORY = SGP/SGP4

EPOCH          = 2025-12-27T04:18:31.505184
MEAN_MOTION    = 15.49864323
ECCENTRICITY   = .00032283
INCLINATION    = 51.6319
RA_OF_ASC_NODE = 70.9638
ARG_OF_PERICENTER = 308.9173
MEAN_ANOMALY   = 51.1527

EPHEMERIS_TYPE = 0
CLASSIFICATION_TYPE = U
NORAD_CAT_ID   = 65586
ELEMENT_SET_NO = 999
REV_AT_EPOCH   = 27
BSTAR          = .2516974E-3
MEAN_MOTION_DOT = .13867E-3
MEAN_MOTION_DDOT = 0

