ISS (ZARYA)             
1 25544U 98067A   25361.17953131  .00013867  00000+0  25170-3 0  9999
2 25544  51.6319  70.9638 0003228 308.9173  51.1527 15.49864323545095
CSS (TIANHE)            
1 48274U 21035A   25361.25191925  .00019920  00000+0  24489-3 0  9997
2 48274  41.4675 288.5662 0008745 157.7703 202.3516 15.59750285266296
ISS (NAUKA)             
1 49044U 21066A   25361.17953131  .00013867  00000+0  25170-3 0  9995
2 49044  51.6319  70.9638 0003228 308.9173  51.1527 15.49864323230446
FREGAT DEB              
1 49271U 11037PF  25360.49630089  .00006366  00000+0  14302-1 0  9991
2 49271  51.6519 158.7680 0864537 253.7501  96.6634 12.34586922203633
CSS (WENTIAN)           
1 53239U 22085A   25361.25191925  .00019920  00000+0  24489-3 0  9990
2 53239  41.4675 288.5662 0008745 157.7703 202.3516 15.59750285173841
CSS (MENGTIAN)          
1 54216U 22143A   25361.25191925  .00019920  00000+0  24489-3 0  9991
2 54216  41.4675 288.5662 0008745 157.7703 202.3516 15.59750285158648
SHENZHOU-20 (SZ-20)     
1 63632U 25082A   25361.25191925  .00019920  00000+0  24489-3 0  9998
2 63632  41.4675 288.5662 0008745 157.7703 202.3516 15.59750285255301
PROGRESS-MS 31          
1 64751U 25146A   25361.17953131  .00013867  00000+0  25170-3 0  9990
2 64751  51.6319  70.9638 0003228 308.9173  51.1527 15.49864323  6753
TIANZHOU-9              
1 64786U 25149A   25361.25191925  .00019920  00000+0  24489-3 0  9993
2 64786  41.4675 288.5662 0008745 157.7703 202.3516 15.59750285255302
CREW DRAGON 11          
1 65077U 25166A   25361.17953131  .00013867  00000+0  25170-3 0  9994
2 65077  51.6319  70.9638 0003228 308.9173  51.1527 15.49864323  2144
DRAGON CRS-33           
1 65304U 25186A   25361.17953131  .00013867  00000+0  25170-3 0  9999
2 65304  51.6319  70.9638 0003228 308.9173  51.1527 15.49864323   112
PROGRESS-MS 32          
1 65586U 25204A   25361.17953131  .00013867  00000+0  25170-3 0  9992
2 65586  51.6319  70.9638 0003228 308.9173  51.1527 15.49864323   271
